{
  "type": "FeatureCollection",
  "features": [
    {
      "type": "Feature",
      "properties": {
        "maxAltitude": 680,
        "minAltitude": 730,
        "name": "IEAV",
        "manager": "icea"
      },
      "geometry": {
        "coordinates": [
          [
            [
              -45.857081415076976,
              -23.252138409489604
            ],
            [
              -45.85826267295781,
              -23.25235351618973
            ],
            [
              -45.85810836449605,
              -23.25276417347213
            ],
            [
              -45.85767204401739,
              -23.25329215954814
            ],
            [
              -45.857139945872575,
              -23.253644149103607
            ],
            [
              -45.856379045526495,
              -23.253737035081855
            ],
            [
              -45.85571924382711,
              -23.25356592928341
            ],
            [
              -45.8553095282557,
              -23.253311714547635
            ],
            [
              -45.8561608852869,
              -23.252377960111573
            ],
            [
              -45.856666378524466,
              -23.25249529087108
            ],
            [
              -45.857081415076976,
              -23.252138409489604
            ]
          ]
        ],
        "type": "Polygon"
      }
    }
  ]
}